uuid,name,country,state,city,zip,street,username,phone,mark
7b25d979-93e2-4dd8-9093-c968615a1aef,Idella Konopelski,Luxembourg,Virginia,Pourosview,31453-6586,Twila Cliffs,Hailee34,1-666-598-0222,42
3009a284-21a2-402d-bd99-ed708d68c534,Addie Morissette,Burundi,Mississippi,East Okey,47485,Walsh Springs,Opal.Tromp54,203.584.7912 x029,56
1680d38d-b608-47b3-8538-11164fbd10b0,Brionna Reichert,Saint Barthelemy,Utah,Lake Israel,21916,Smitham Junction,Kiera8,1-085-067-4154 x406,93
ade3d4fc-536c-4c11-9f75-649f7675e69d,Jane Lang,Cook Islands,Utah,Kohlerstad,17504-2274,Koch Mill,Laisha.Flatley80,1-891-376-2827,63
26dc8107-5759-4b54-8fd8-d8312a235f8b,Caden Macejkovic,Japan,Indiana,Lockmanchester,99018,Alfred Walk,Tillman.Jenkins,392.191.0944,83
1000b938-05c4-4b41-8f83-c8d5278c04a7,Emiliano Lehner II,El Salvador,Connecticut,South Frederic,07134-3822,Schaefer Points,Lorena.Gorczany,115-169-7512,77
d5c5aac7-7595-4964-ba1d-3eb1d1e84f49,Don Johns,Madagascar,Louisiana,Bodefort,660,Wilderman Field,Terrill.Schneider21,1-301-805-2109 x356,53
5624ab2d-bb74-459b-b5df-bb3c8c178b1d,Wallace Hudson V,Switzerland,Minnesota,Johnathontown,47208,Christina Plains,Santino83,(270) 562-4475,68
d349d87a-44fc-4971-9187-9c620cf218cb,Jaylan Abshire,Falkland Islands (Malvinas),Nevada,South Kaileyland,12948,Hand Plaza,Pinkie.Keeling57,633.383.9798 x2768,41
5de5617b-6347-4731-8656-166bb1122fdd,Brett Wiegand,Yemen,Wyoming,South Durward,30521,DuBuque Parks,Krista.Johns90,659-898-4578,59
58892bea-bb8d-4d04-a394-9605c4ed0c2c,Clark Mraz,Mayotte,Washington,West Dannie,20961-4857,Cali Locks,Tyrese4,085-729-5398,73
40f40170-6bba-472f-9ae0-e5cc354fd1f9,Evelyn Larson,Ghana,Missouri,Abshireside,65605,Adan Lake,Celestine_Halvorson86,300.163.8374,87
cab119cb-9930-49ce-bfbf-eed1bdd09cd2,Mrs. Fletcher Jakubowski,Uganda,Wyoming,Allenfort,63840-6955,Judy Island,Alia.Schneider22,807-968-4930 x39672,99
e0fe599a-1c95-4076-a49e-ffa70c866bfb,Leda Walsh,Chad,Connecticut,Watersstad,42715-5847,Myah Trafficway,Don79,978.831.5574,44
3dce6515-55e9-4c1f-9151-c9a90bfe6ba6,Jimmy Daugherty,Marshall Islands,Michigan,Joemouth,71863-3602,Walker Trace,Johnnie.Powlowski,349.448.4869,43
9be64bd1-b749-4355-9337-cb614d17ca69,Gideon Wolff,Morocco,Washington,East Catherinemouth,95175,Ryder Garden,Melany72,(900) 095-1828 x7113,55
36bcde31-bfd1-4c3f-8ddf-7c9f150abb7e,Clifton Flatley,Denmark,Ohio,Lake Brianne,68094-8312,Kadin Hills,Manuela.Batz95,1-348-949-4765 x814,83
6b7f1789-2ab8-40d6-82f1-10bf92c75bb8,Mr. Alisha Windler,Trinidad and Tobago,Virginia,New Jacinthe,3822,Tromp Walk,Patsy44,770.217.4143 x81218,50
ea6a34a0-810b-453a-9937-bce12fa7a236,Letitia Goldner,Ethiopia,North Dakota,Framiport,60084-4405,Arnold Valley,Junior_Hane41,265-112-0986 x1583,55
ba630564-b0cc-47b1-907e-26dfdd1a3478,Mikayla Skiles,Puerto Rico,Iowa,Friesenside,43528,Jabari Radial,Broderick_Feest44,675-113-6897,74
9ba349fd-80d9-4e87-81f9-2a0d8712bc04,Willa Thiel,Bahrain,West Virginia,East Dorian,83500-8619,Emmerich Forks,Ernest.Blanda,1-203-385-5314,88
5202584c-931a-481a-9503-d5bc25b4f8bc,Emilia Borer,Niger,Nevada,South Mathewville,16678,Roberts Hills,Lucinda_Daniel92,051.689.8780,76
1651d956-6dd8-46e2-b9af-715370e62722,Ms. Jarvis Veum,Syrian Arab Republic,Indiana,Assuntabury,19556,Fay Walk,Salvatore_Torp,(206) 919-9100 x03685,62
ddb2f111-779f-4dc9-8e6d-83152af31bcd,Oda Mueller,Italy,Louisiana,East Winston,23429-7971,Aron Garden,Kylee.Satterfield,530.882.7491 x504,40
a1976b16-823c-40b5-96e6-a14d42d89ece,Arne Beatty,India,Delaware,Port Kelli,06793-9821,Spencer Court,Melisa.Hagenes63,371-413-9920 x6754,73
c2db9751-a86e-4170-b06d-78052f468328,Omer Champlin,Sudan,Maryland,West Dimitri,89726-6803,Adolphus Prairie,Miller39,673-141-4614 x86676,48
162b8634-815c-443e-82e8-79179a106643,Willard Konopelski,Montenegro,Kentucky,East Mauricehaven,43351,Aileen Prairie,Baron_Wilderman78,1-986-410-7419 x238,81
f375f4b1-9112-415a-8593-203ad7b57bdb,Sarah Metz,Chile,New York,Estelport,36638-0028,Johnson Heights,Teresa_Schiller75,116-916-0382,96
3e6eca15-fb93-4bba-a3fd-7d7d7ca60438,Faye Boehm,Greece,Florida,North Lauraland,26461-0828,Larkin Rue,Raul_Auer43,093-207-8326 x82204,55
06a2813f-5356-4e44-b699-089f2eb3c627,Jermey Beer,United Kingdom,New Mexico,East Cecil,43991-6109,Lenny Stream,Electa.Bailey42,1-228-908-9587 x0737,54
c0ecbf80-2116-44c5-845f-dc7eeb745cf9,Ophelia Nader II,Antigua and Barbuda,Wyoming,East Ward,75881,Donna Ports,Milan.Schultz25,187.517.8477 x21332,100
ad298c1b-2688-4ec7-9710-d1cf7882eba8,Stefan Kilback,Indonesia,Montana,North Lillianmouth,80339-8084,Christophe Streets,Maryjane_Brakus15,006-918-9610 x23315,72
e1fe8ba9-07e0-42af-bf2a-7cb9f2d12ba0,Jarvis Labadie,Burkina Faso,Illinois,Lake Emiestad,78235-9421,Wilkinson Landing,Eldridge.Barrows,(668) 139-0140,78
0eb18c1a-0e3b-46a3-8621-35d266d98919,Rosina Weissnat,Holy See (Vatican City State),Hawaii,Lake Jan,42004,McCullough Meadow,Lon.Blick,764-113-2355,92
9e3f3900-32ae-4d99-b11e-ace46a260122,Reanna Greenfelder,Gibraltar,Florida,South Catalinaside,66432-8560,Jakubowski Gardens,Kallie_Nicolas90,823.189.1915 x7438,100
10c45a05-8a1c-4c90-9a3a-234e0f32c54e,Jodie Bauch,Belgium,California,New Matildebury,28190-0167,Becker Square,Bridget.Block27,1-088-451-9293 x33252,63
9675bde7-de7f-4a04-b575-6dd466491be4,Duncan Ankunding,Tajikistan,New Jersey,Estefaniahaven,42081-5806,Clair Vista,Broderick_Kuhn,675-066-5618 x709,79
0c0ac608-faf6-405c-b692-5ff828dca654,Gregorio Osinski,Morocco,Washington,New Eldora,73841,Borer Wall,Delpha_Fay98,213.677.3691 x41107,69
1e307912-0815-4013-ba26-7a168d0a9678,Wilfrid McKenzie,Togo,Washington,Lake Sammie,59953-0032,Nikolaus Vista,Junius55,797-884-1985 x992,90
88713670-9e2d-4782-be02-1736656d095c,America Effertz Jr.,Uruguay,Wyoming,Johnstonshire,68375,Johnson Parks,Reva.Larson16,(761) 299-6972,40
9daef85a-a570-4e83-a28a-ebf054056552,Glenda Lakin MD,Tonga,Washington,Lake Ryley,87210,Rohan Route,Orie_Grimes,778-130-3299,51
85781883-4f40-463c-b1b6-42d3d65667b4,Coty Connelly,Holy See (Vatican City State),Missouri,North Jeffstad,22968-1331,Sheila Streets,Alison67,(515) 752-9831,94
b240dbf9-4631-4e04-85f8-49fc2f653ed0,Danika Turcotte,Gibraltar,New York,Nitzscheshire,19214-9043,Howell Highway,Winfield.Jenkins48,902-112-4192 x3109,57
20a9c516-fa28-475d-bc63-e0801ead6720,Meda Rutherford PhD,Vietnam,New Mexico,Corwinhaven,35541-7930,Macejkovic Prairie,Berta_Littel,1-469-505-4806 x41438,98
6be41436-f525-48ca-b351-2319c952b222,Tillman Purdy PhD,Suriname,Virginia,Lake Lorenz,29846,Erika Forest,Irma.Pfannerstill73,(747) 917-6430 x1779,69
617e6ab2-0a11-4150-86d7-34ed0705471b,Caterina Schroeder,India,Oregon,New Fred,14298-0812,Mohr Port,Nicklaus1,084.729.9942,80
b460ce09-497d-48d6-8f4f-9f5be672a192,Boyd Denesik,United States Minor Outlying Islands,Vermont,Giovannimouth,72401,Isabelle Valley,Lela_Hartmann36,690-414-3007 x87365,83
c539b432-9c36-4e3e-9ffb-c4460f833b5c,Reed Gottlieb DVM,Solomon Islands,Hawaii,Port Yeseniaton,00672-6509,Hickle Way,Ted_Schroeder28,1-685-914-4084 x24596,67
a49bfbf8-2903-4f98-804f-9e6f435f63fb,Kiara Legros I,Israel,Hawaii,Monahanfort,03932-4936,Herman Fords,Mackenzie_Yundt,558.290.0498 x1778,89
4705c9dc-fcea-4078-8ec1-557708f98c18,Myrna O'Keefe,Bhutan,North Dakota,North Olaf,29728-4440,Llewellyn Ramp,Florine.Wisoky79,746.054.1726,57
1215115c-0a7f-4af5-a2d2-36b7b041d84b,Aniya Labadie,Haiti,Tennessee,West Shaina,13724,Turner Club,Hadley.Runolfsdottir,042.903.0259 x345,90
4ff922cc-6d3c-48fb-8912-a4bae1c68c7e,Aimee Kemmer,Algeria,Colorado,North Sherwoodhaven,97855-9696,Shayna Common,Talon.Franecki,1-938-687-9067,76
4c2ba802-e367-4501-902c-9796f4f26e01,Tommie Prosacco Jr.,Italy,Oregon,Charleymouth,4162,Botsford Mountain,Rowena.Hayes44,1-609-263-3913 x404,96
d1ab0a27-a3d3-41a6-963f-7fbfcfadd2b0,Miss Afton Herman,Bahrain,Iowa,McDermottview,14694-0935,Keeley Port,Alan6,727-355-6224,53
f09a0e61-5e3e-4739-8080-7f76b259f9b8,Mrs. Al Fay,Palestinian Territory,Illinois,North Madgeside,92979,Abernathy Stravenue,Francisco.Mueller58,835-489-2047,83
41970237-6e41-4a1f-ae3c-ab171359a468,Hulda Friesen,Greenland,North Dakota,South Enochport,61168,Maymie Mission,Eleanore.Kreiger,920.810.5302 x055,71
44a882bc-0cc8-4521-ab9f-e78fc6dfcadd,Marion Yost,Venezuela,Pennsylvania,Keeblermouth,42593-5921,Blanda Courts,Kailyn_Huel,(115) 401-5833 x11934,98
31319cdd-d9ed-43fa-8c5d-883259570f29,Clarabelle Gerlach DDS,Italy,Maine,East Dejuanborough,83980,Myrtis Road,Sarina.Keeling37,(846) 157-6795,47
2c43ed62-0fa4-4315-af5e-19ddb587addf,Titus Kuvalis,Saint Barthelemy,Ohio,Padbergtown,50898-4344,McCullough Lake,Kellen_Hermiston,177.384.9977 x6130,96
19600903-9d2d-419a-8ab9-76690794944c,Fabiola Veum,Philippines,Iowa,Jerdeview,11869-2410,Jeanette Rapids,Gladys_Reichert17,866-457-9265 x84790,57
00e6b9db-31f7-4a02-a1f7-4c11e4940e55,Ewald Stanton,Belgium,Idaho,Lake Kaleburgh,57639-7568,Stroman Brooks,Bettie_Kreiger,1-119-439-3000,70
c3fb6718-c5c7-4e18-a9e5-33cf136c85b1,Jerrod Effertz,Mali,Idaho,South Octaviaburgh,54569,Cormier Mountain,Maximilian_Schumm1,1-066-978-1649 x4456,62
2032db9c-ad72-452b-a90a-400376cf24de,Alex Parisian,Estonia,New Mexico,Camdenberg,80596-4707,Neil Harbor,Jeremy.Nicolas14,1-129-842-1953,88
16c09ba7-0a01-401d-a261-5a0e0994f50d,Gino Will,Gambia,Alabama,New Quincy,17378,Jairo Manors,Bailey_OReilly,681.529.6754,51
afb98414-090d-4693-a2d8-cd3afa240743,Ms. Avis Wilderman,Colombia,New Mexico,Ofeliabury,73848,Baumbach Lakes,Herminia_Kertzmann30,1-565-866-0279,65
9d1678a7-4535-4e07-acc6-f7df098d47ba,Audrey Swift,Morocco,Florida,Hoegerport,80051,Pouros Street,Anabel_McDermott,1-591-820-9774 x90400,84
d448febf-081c-46c8-af70-bb60707a6c6d,Arch Schinner IV,Spain,California,Keelingtown,37489-9022,Raphael Ridge,Alvena72,1-490-110-3163,93
0b18aa6c-5dc2-4950-9599-a5165b3ea848,Ms. Eliza O'Conner,Antigua and Barbuda,Nevada,South Leland,07754-5664,Beth Islands,Jamal.Waelchi,166.475.8551 x26769,58
12c54d7e-18d3-4926-baa5-8233c5f6247b,Mr. Marisa Armstrong,Gibraltar,Oregon,New Michele,76795-6643,Howell Road,Giles_Haley,322.672.0768 x42119,98
fa5d2f47-b103-4a0b-8dd5-a3cea78b3bc5,Karlee Larson,Czech Republic,Louisiana,Windlerfort,27489-2856,Trent Via,Leopoldo59,1-397-692-9821,91
48ab409a-027b-4099-bc34-01603ece8e89,Lexi Goodwin,Bermuda,New York,Satterfieldland,72814-0992,Lucious Throughway,Krystal94,(137) 392-1201 x1723,42
64edb72c-acce-4bd5-9818-c9cb05508b16,Oceane Rogahn,Cape Verde,Delaware,Melodystad,81912,Filiberto Center,Grady_Farrell84,(879) 827-0065,77
cbb9d665-38b1-4219-a9a7-a117560a453b,Johan O'Conner,United Kingdom,New Mexico,Ernestostad,49678-4960,Alvah Crossing,Corrine_Lindgren30,(117) 389-4807 x027,63
7947bbb8-e052-41e9-a7e8-827b1f479d8f,Rosie Boyle V,Democratic People's Republic of Korea,Idaho,Madonnastad,81802-5776,Sauer Mews,Olen_Langosh70,077.813.4325,57
6ea44f21-ebd1-46c1-b021-acba05e2b5c8,Bella McKenzie,Honduras,Maryland,West Audreannebury,26168-3679,Vicenta Road,Reta_Jerde51,795.815.4394,75
dce7778e-e3e7-4082-ae99-19841762e1de,Heloise Collins,Poland,Iowa,Dickitown,5752,Satterfield Mountains,Jedidiah65,(439) 339-6585,58
454d5201-5ef7-41fb-890c-be65b6e9396b,Summer Labadie,American Samoa,Idaho,Lake Wilfridburgh,48177,Gibson Orchard,Cyril_Grady81,1-190-595-2708 x39720,76
804669cc-bb53-4339-8541-799d7c42da95,Davon Gibson,Kazakhstan,Indiana,Murrayville,18109,Schmidt Mill,Gaston_Heller,796.868.2428 x67021,58
59299d48-da6d-42e0-a370-38887fd2019b,Gennaro Robel,Nicaragua,Massachusetts,North Jade,40942,Kaitlin Estates,Antwan35,398.461.3079 x320,94
e1927e50-32b6-4099-a7b1-86ed55a0d883,Casimer Gleichner,Marshall Islands,New York,Bayerborough,45325,Wiza Shore,Nia_Hagenes34,727.323.8988 x936,73
f4c1dd0a-e64d-4cd1-a8f2-e2aa74b41fb3,Oceane Oberbrunner,Costa Rica,Oregon,Lake Keeley,99698-3896,Zboncak Gateway,Carmen.Muller31,1-983-961-4767 x5854,93
7399ad9d-c086-452a-8808-bcba7ecc4c53,Georgianna Bradtke II,Isle of Man,Rhode Island,Haagmouth,78675,Jovani Oval,Rebeca_Haag38,(795) 976-9199 x17667,49
0e962a2c-d8cd-4976-8d85-f2f44858dceb,Nathan Zulauf,Guam,New Jersey,East Candido,77076-2745,Ernser Trafficway,Lonie_Waters,730-046-0629 x050,81
18164e0b-26a8-4e6f-8414-ecca679e8c67,Jana Vandervort,Cuba,Idaho,Wizamouth,13864-1804,Talon Cape,Ericka.Shanahan,594-553-2671 x256,43
0f9873c8-1654-4b35-9cc7-107d22ed75d2,Lyda Ziemann,Belgium,Massachusetts,North Vincentmouth,56190,Schultz Lights,Shyann_Graham,940-073-6054 x433,94
a6423418-fcd7-4aa1-aace-07cfe761ca7b,Wendell Shields,Niger,Minnesota,Port Ashtyn,25463-5031,Weber Pine,Roberta44,373.238.9758,73
22551a06-752f-486e-96d1-ea7234205966,Salvador Orn,Austria,Texas,Kshlerinberg,00705-1221,Dickens Mill,Jamel65,1-880-571-2489,67
24894d46-c022-440a-865d-d2b7efd961c5,Reina White,Gabon,Idaho,East Antonia,55080-1483,Kertzmann River,Layla_Dibbert37,165-342-5049,80
bc19427f-8057-4b3f-9bf7-6cd03e5e12d3,Leann Emmerich,Tuvalu,Louisiana,Ciaratown,96491-7942,Golda Lock,Elmo.Nitzsche21,836-972-4687,46
05c11e60-30b9-4de4-a226-d0dbf46acf0a,Eleazar Volkman DDS,Kazakhstan,Delaware,East Christa,76858,Littel Rapid,Gerson.Nienow,(374) 028-1468 x856,47
ede7892e-4468-4b82-aed1-269afbc2fb08,Juliet Franecki,Romania,Idaho,North Revafort,63542,Stroman Roads,Lukas.Lueilwitz,(396) 610-2625,48
d73f9bd3-4aa0-4dee-86c3-83ddc033ee45,Dr. Larry Howe,Colombia,Connecticut,East Yvetteborough,62157,Bernie Key,Braden.McDermott,384-999-3993 x9561,60
e59100d0-a817-4a02-9bf9-802b07a262d6,Edward Hintz,Estonia,California,Molliemouth,12460-9025,Trantow Fork,Cortney.Harber83,1-774-771-4578 x40065,78
6123c656-1c64-44c9-b021-b5132ee249e0,Vince McLaughlin,Republic of Korea,Pennsylvania,Nelsville,21986,Friesen Greens,Queen.Will,1-969-591-8519,90
beb5ff34-d363-4eb4-9494-53ece6b16a1d,Helen Conn,Syrian Arab Republic,Nevada,Tremblayfurt,04696-3460,Pouros Parks,Haylie38,1-382-788-1950 x91030,71
7ee21a66-edad-454b-99b1-a601806d885b,Christina Cummings V,Malaysia,Idaho,South Camilafurt,76701,Cheyanne Burgs,Neoma52,1-843-740-5209 x236,66
e479b94c-dc9b-47c1-9892-c8b525ded6f6,Gilbert Hettinger,Vanuatu,Georgia,Marksport,03954-0274,Jamar Drive,Helen.Smith,591.453.1118 x64709,97
84e73100-06e5-4d55-8adf-8c55057100e5,Ms. Lydia Ernser,Liechtenstein,Indiana,Port Dolores,36870,Delphine Village,Mazie_Haley18,855-178-7780 x09895,52
d6120852-14b7-46b0-82d0-e5af53018ce6,Buford Daniel,Marshall Islands,Kansas,East Browntown,60503,Preston Lights,Pauline.Douglas,(445) 430-3634 x803,62
afc734e2-79cc-4ebb-94a4-b208375838f2,Marcella Erdman,Brazil,North Carolina,Watsicaton,48863,Sage Terrace,Loren.Hahn,(253) 232-5859,58
d2772fc2-3138-4bdb-98da-33c55b304978,Loyce Gorczany,Iran,Delaware,Starkburgh,23669,Mariela Glens,Onie_Nolan70,1-823-918-4578 x0403,90
6545eaee-f56c-4191-a5c3-3a15c46e0ae2,Mr. Myrtis Balistreri,Macedonia,Maine,Dooleyside,76282,Wilderman Alley,Sherman96,827.219.3294,69
9d2efac5-7ac6-461a-a736-560843781d75,Miss Elwin Kiehn,Italy,New Hampshire,Lake Kalliemouth,37498-2925,Ryann Glens,Rory98,280.096.7721,49
9a3a6082-2bf3-4992-be17-ef9afcb2ec4a,Brooklyn Kris,Turkmenistan,Florida,Lake Gabriellemouth,57990-8800,Orn Lane,Blaise.Wiegand52,033.547.5396,42
f56f37f0-5ab8-4a91-8980-2dc77079c665,Sage Hahn,Anguilla,Indiana,South Hortensemouth,78148,Konopelski Street,Noemy.Roberts,926.281.2300,59
21c9896b-454e-4e16-850c-b34f9385a1b1,Parker Vandervort,Central African Republic,Texas,South Rebekah,73806-5606,Schimmel Inlet,Palma_Schultz78,817-858-1687 x760,94
f5bf3e0c-fd99-4930-ae38-840b60d5907c,Fidel Pfeffer,Iceland,Wisconsin,Casperton,98258-9553,Jevon Tunnel,Jean_Hoeger,991-981-4944 x84835,61
b60c3c5d-f44b-4715-a521-a8690c0cdba4,Juanita Goldner,Bulgaria,Louisiana,West Deion,43515,Marks Knolls,Jakob_Rolfson79,952-090-5461 x09257,73
33fcbd8e-aa17-4282-bdd6-d6c04953da68,Ms. William Blick,French Polynesia,South Carolina,Port Kirstenview,77197-5967,Steuber Isle,Cyril93,1-168-679-4586 x11177,72
1ea034ce-8bab-4f84-9b9d-e4de6b05d4fd,Tristin McLaughlin,Greece,Florida,Port Oran,00242-3345,Ed Squares,Marc.Wolff13,886-263-2334 x5241,49
fd8f74cc-120c-4d30-9f2b-caa0d4532717,Eloy Hirthe,Nigeria,Maine,Dameonmouth,24910-1920,Sherman Crescent,Laury19,739-444-7302,73
a0de35a1-dfe8-4a4a-8787-6ffff70044c6,Erica O'Reilly,Saint Barthelemy,California,North Emmanuelle,68014-3714,Feeney Field,Lilla_Barrows83,175-813-4080,41
e232000b-1c90-4e0b-8794-f4a1094a769c,Jocelyn Kirlin,Tajikistan,Nevada,Schowalterside,51533-1609,Donnelly Mills,Garth.Conroy,209-146-5942 x451,85
e523948a-1541-4e2e-bf4c-d3574cb87b32,Dorothea Hessel,Burkina Faso,Vermont,New Jules,44158,Hand Stravenue,Adan_Feil45,502-277-3782 x2334,58
30bc7695-6ff3-4054-a409-396568852b17,Declan O'Conner,Saint Martin,New Hampshire,Port Barney,85370,Schimmel Common,Joelle_Bergnaum54,360.980.2364,85
2216ab0c-716b-40d3-a918-1b743c7c53d7,Josefa McClure,Uruguay,Louisiana,North Artborough,39191,Cassin Orchard,Monique6,(406) 468-2456 x53804,83
fad7e5d6-48a4-469a-8841-32a4fe2d8bf6,Amari Lesch I,Saint Barthelemy,Illinois,North Willard,65888-2210,Zboncak Cliff,Kristian.Kutch,(869) 174-6566 x82139,87
94074848-8d9c-48d5-90f8-cd76f8f90a32,Casimer Rice,Lesotho,North Carolina,West Hildegard,25173-0076,Wisozk Squares,Logan.Dooley23,1-518-723-6890 x80464,96
3d882610-4123-4064-9c3b-a209fd7ca120,Jarrett Stehr,Saudi Arabia,Florida,Lynnberg,4597,Kreiger Mills,Austyn27,1-722-597-2171 x601,64
0d31e1e6-25b5-442a-bd32-6fde87c82bf5,Isabell Mosciski V,Israel,Georgia,Huelsville,2240,Darrel Centers,Dave.Denesik,(092) 204-1086,90
b78e3e56-c1f4-4b79-a582-0fd0317553c6,Cleo Purdy,Sri Lanka,Vermont,North Ebonyport,20760,Sandrine Circle,Dianna_Johns,348.902.5108,69
cc98ee48-2a00-4339-8ba9-c31323ac977f,Nova Prosacco,Philippines,Montana,Lake Heath,66178,Sierra Junction,Daron_Weimann,1-410-151-0875 x0153,52
6c5fb8a9-0bf0-4bbf-874b-5c09394eb1a3,Gina Collins,Senegal,Massachusetts,Heidenreichborough,41850,Xavier Walk,Mckenna91,1-546-170-9516,79
9fad4fcf-246c-4b84-8671-abc7aaa78693,Colt Daugherty,South Georgia and the South Sandwich Islands,Minnesota,Annettefort,34740,Medhurst Flat,Zita13,261.770.9213 x6589,64
484a1038-3503-4159-beeb-a9ef71b15853,Mrs. Ricky Runolfsson,Tonga,Hawaii,East Kaliberg,43088-2053,Cullen Mission,Trinity.Kovacek,894.887.7024 x077,68
a373dbd4-9b7c-4334-a76c-adab2cb82b2c,Joaquin Gerhold,Seychelles,Pennsylvania,North Rashawnchester,31105-2915,Ward Courts,Missouri_Lueilwitz79,(858) 046-3140 x066,76
c9ac05d4-79c4-45ff-96b0-6d0e4bf911b6,Madilyn Heaney,Papua New Guinea,Massachusetts,New Willard,326,Tromp Wells,Tracy65,913-186-5737 x9437,51
0a940952-b34b-45b3-80f6-3087020e80fa,Jasper Jacobi,Cameroon,Nevada,Weissnatview,33549,Adaline Mountains,Shanie83,1-148-922-6747 x0927,69
5bd7deab-47dd-41f1-9f17-f7db900d22dc,Maximilian O'Conner PhD,Spain,Delaware,Port Lexus,63037,Skiles Junctions,Van.Fahey43,(040) 427-7812,63
26146255-77f6-4840-9c9d-a44b28d37101,Carmelo Harris,Brunei Darussalam,Maryland,East Earlenetown,55701,Ernser Trail,Laurence_Douglas93,179-163-6151,63
4fdb3d05-ef82-4fa8-95b3-37a036904efb,Garnett Jast,Iceland,South Dakota,New Maynardberg,05347-0147,Edgar Way,Tony_Pfannerstill,265-617-1743 x091,67
2896024b-5a8c-4eed-9618-682504fe3caf,Dorian Rempel,Iceland,New Mexico,New Don,89121-9104,Kub Parks,Efren.Lueilwitz,157-718-1422,78
fc3e0804-c54a-4678-9de2-ad1cf579019e,Sigrid Weissnat,Tokelau,Wisconsin,North Dallintown,8489,Stiedemann Skyway,Hillary73,997-190-1280 x097,66
25e3f3a9-b24f-41a3-9578-a3b1dcaf7e54,Chase Block,Republic of Korea,Mississippi,Sydnibury,19270-2233,Adolph Crest,Linnie.Kessler42,1-769-522-3047 x106,53
9e518939-31c4-4da7-b8c3-a7f9bbb6b43f,Miss Vernon Sipes,Venezuela,Arkansas,Drewport,79102-6142,Lily Road,Dax_Mayer,446.317.0001 x00063,72
16ffb5f6-53c2-46bc-a96a-9a60db6dad34,Samantha Pacocha,Azerbaijan,Washington,South Royal,96839-2258,Loren Valley,Loraine31,1-580-042-3314,55
7313567b-e179-4e62-ae8d-99fe0e2e915a,Jillian Kerluke,Philippines,Pennsylvania,Jaydebury,38871,Jaron Grove,Nellie.Ledner94,(435) 925-0322,46
dbf24cfa-4cad-4540-bf35-800322aa5dc5,Mandy Bartell,Austria,Nevada,West Lillietown,60026-0188,Celestino Walk,Douglas.Corkery31,(983) 795-7953,63
e191495f-8faa-4716-97c1-cc19323a86c7,Darrin Walter,Uzbekistan,Illinois,South Floport,89387,Dallas Stravenue,Deshaun_Bailey,(949) 883-6773,59
abf6a38b-427e-4850-bbfe-4fee0e053db4,Nola Hessel DVM,El Salvador,Hawaii,Harveyfort,35433,Stroman Islands,Gilbert30,(849) 627-0338,76
fbe75b46-8161-4708-bdff-5577b64ec2ad,Kurt Daniel,Niger,Colorado,Aronhaven,39853-2854,Obie Brook,Rahsaan19,(598) 966-1257 x8119,82
72ab9d51-5439-4926-a14c-d93eff3d0fb0,Francis Heller,Sao Tome and Principe,South Dakota,New Mariana,94900-8097,Jessy Dale,Helen.Harber44,511.397.7961 x21407,61
b6e7688f-af45-4275-886c-892bccd03a8f,Verna Johnston,Turks and Caicos Islands,Mississippi,South Stan,8595,Brown Isle,Stevie.Medhurst,899.031.1743 x71110,79
3136dabe-5001-4b3b-aaef-90b5e074671c,Marisol Skiles,Hungary,Alabama,East Orland,18102,Corkery Walk,Oma_Olson84,229-575-4719,71
11a7ddc8-825a-4941-9195-1fb75e25caed,Leonardo Dare,Christmas Island,North Carolina,Nathanialland,40180,Bechtelar Green,Karson.Labadie42,179.865.7458 x1470,67
c6bec0c5-f7c0-4391-82de-67dd7d49bcad,Kyler Grimes,Sudan,Virginia,Gloverview,09714-2520,Yazmin Ramp,Victoria_Bashirian94,1-588-031-6948 x46280,58
0f007a4b-b2d7-4423-a33e-6cb308b5a436,Aurelia Lind,Mali,New Jersey,Lake Hermannton,19716,Graham Curve,Whitney54,729-445-5702 x6886,50
28ac03b1-e962-4649-8ea8-c9172232d53d,Katrina Schumm,Bahamas,Vermont,Justonhaven,58911,Daphney Manors,Jovany_Rolfson,(225) 285-0378,79
7247516f-b491-467a-82b6-4b88e2640384,Ezequiel VonRueden,Canada,Oregon,Rogahnton,24192,Strosin Landing,Dock77,1-476-036-0060 x366,72
754c298b-f9f2-40c6-851c-81eb050400b4,Fidel Ryan,Togo,Idaho,South Lexusport,54417,Wilderman Cape,German.Satterfield,107-400-3058 x462,91
fcffc3c9-c0ce-4356-91f6-f24f24f1e658,Dasia O'Reilly,Bhutan,Illinois,West Reta,81893,Annamarie Hill,Emmett23,(689) 886-4386 x9333,41
854226a2-38bd-41af-9bf4-4eb1727b83e7,Zane Fisher,Gambia,Texas,Hannafurt,42102-4514,Williamson Throughway,Juliana_Treutel,699.186.8460 x854,100
357a7579-a643-4607-aa01-43b3f59b28fc,Constantin Bechtelar,Croatia,Pennsylvania,Bernierchester,80990,Powlowski Lakes,Nova.Douglas,646.397.1089 x14536,43
80e64ddd-8558-486d-b82d-e2561c540ba3,Ephraim Boyle,Guatemala,North Carolina,Kevenville,47328,Bosco Lodge,Shemar51,1-030-960-5583 x53789,53
8dfddb21-7f50-4059-89dd-b2c057ba0068,Mallory Schmidt,San Marino,South Dakota,East Phyllis,25069,Ritchie Light,Katelynn29,631-653-3986 x4622,60
e42d8ac5-31b6-4eff-ad72-de58836b559b,Carmel Veum,Christmas Island,Vermont,Clintmouth,59453,Braden Union,Doris_Lesch67,1-000-117-1895,42
6739fe75-2497-4dc2-be0b-dba813f49b71,Nathaniel Fritsch,Lao People's Democratic Republic,Georgia,Doyleshire,36654,Gutkowski Brooks,Loren_Strosin,1-596-827-0490 x12379,43
409f03e0-9240-4b61-94aa-47eb6a8f14fd,Isidro Schmidt,"Virgin Islands, U.S.",Michigan,Borertown,68995-4783,Gottlieb View,Uriel11,1-184-462-7291,100
f47f51ce-d22a-463d-8d7c-bbef6ba11e34,Ms. Fleta Steuber,Pakistan,Texas,South Savanahstad,65548-8618,Ena Stravenue,Athena_Weissnat,638.044.4080 x72604,60
c51826da-0cb5-4214-b856-5c9e44c3007a,Jodie Halvorson,France,Hawaii,East Marley,82242-1224,Schamberger Forges,Shayna_Metz68,136-709-0322,80
713de019-3c09-4fed-9c4c-215ca3dd4232,Luna Cummings,Falkland Islands (Malvinas),Alabama,Carleeburgh,45404-2173,Burdette Mount,Haylie84,303-623-6675,68
7b3c8ea2-5ded-4c51-9e80-76642b49d7b8,Donnie Mueller,Sweden,Maryland,Powlowskiton,19919,Giovanna Inlet,Spencer_Collier64,(261) 051-6103,59
4eca3084-354d-442c-ad4d-108616e50ea4,Charlotte Langosh,Sao Tome and Principe,Connecticut,New Royce,53694-5086,Ryan Lock,Drake90,1-146-763-0225 x390,91
2c3ae3bf-d3c0-46df-a7b6-825a7da53ee9,Ismael Dietrich,Moldova,Pennsylvania,South Emoryburgh,26059,Boyle Estates,Taya_Cummings74,952-243-8773,93
61ee5b8e-d6da-4573-8a8f-27837fb7d761,Eusebio Muller,Zambia,West Virginia,Port Queenie,37546-8405,Woodrow Lane,Libby.Nader35,487-283-4084,83
f6af175a-a73b-4e86-a940-05eb7dd64825,Gino Reichert,Ghana,Iowa,Abshirechester,3920,Schmidt River,Lacy_Homenick97,782-068-6478 x0295,45
7408d5fa-7c64-498f-9336-e2c0766c539a,Emilie Botsford,Libyan Arab Jamahiriya,New Hampshire,North Katlyn,35732,Janae Station,Deangelo.Frami32,1-103-704-7489 x2084,69
2c81c603-f663-47f2-9641-9289d569635d,Willard McClure,Singapore,Maine,Caylafort,31204-5381,Carmel Ridges,Queen52,417-969-9927,87
8ba481be-a076-4314-80fc-31d1c1e092d6,Alexzander Armstrong,Zambia,Tennessee,Marianaborough,42017,Jacobson Common,Cierra4,(292) 546-2012 x5444,49
502c23df-89a1-42b9-a2bb-88bebdbaee2d,Salvador Mraz,Lesotho,Nevada,Erdmanmouth,47523,Gottlieb Motorway,Merlin37,980.545.0956,57
0a797e76-a1f5-443a-9d2e-a3b6033869bf,Grayson Schmeler,Nigeria,Rhode Island,Lake Gerdaport,47743,Ines Valleys,Abbie.Streich,799.609.9999 x67045,44
31a2f322-03eb-4fd1-9e2d-c0fff102a5a3,Derrick Kertzmann,Fiji,Connecticut,New Cary,13589,Kiehn Locks,Alvina33,445-220-2612 x09193,92
dcd87776-b662-47b7-9042-53af4685cbab,Mrs. Darrel Hand,United Arab Emirates,Alaska,Jonchester,00277-7520,Hobart View,Idella_Crist75,252-656-9483 x574,100
9d538eb0-f5c7-48ec-b6cd-c83a9467c746,Catherine Miller,Albania,Kansas,Klingburgh,90650,Russel Light,Alana.Stehr78,881.345.4949 x016,58
f25d1726-9633-4f58-8a50-c3ea64d32515,Karianne Jaskolski III,Lesotho,California,New Nataliastad,34974,Dangelo Falls,Noelia.Emmerich14,1-538-782-2725,73
c6938f7f-6c54-4083-91e0-422308536d80,Jarred Zulauf,Syrian Arab Republic,Nebraska,Lake Bridie,58005-4904,Turner Causeway,Rosie_Lebsack,1-319-114-9558 x301,97
b5fc3dd8-9ad4-4e2d-96ef-ffd84b323fd1,Desmond Waelchi,Greenland,Vermont,Kautzermouth,70715,Torphy Passage,Meda53,(708) 328-2990 x922,40
d3530c52-d0dd-460a-b097-d2a0e430e178,Leatha Hilpert,Gambia,Pennsylvania,New Joaquinside,83875,Conn Via,Jammie_Zemlak81,927.255.4932,69
6d64133d-7981-458d-8aca-dc3338e01a94,Guillermo Rodriguez,Rwanda,Arizona,Jarredberg,15095-6766,Smith Run,Maverick_Goyette,474.975.5812 x515,45
4295d1ca-316e-4958-bad4-fc6f6a4fbfaf,Burley Greenholt V,Honduras,Alaska,Tyrellville,53688,Denesik Forks,Jayden.Davis72,751.389.4774,62
083b5756-a202-4779-b70c-ff3b4dd995b4,Evert Steuber,Singapore,Ohio,South Rhoda,34568,Bethel Junctions,Kaitlin27,214.911.6380,48
1d35bf55-a3bb-440c-8af5-d4380e009ba2,Wade Frami,Macao,Missouri,South Aliaside,36268-1686,Jaqueline Hills,Jennyfer_Langosh84,1-764-105-6495,45
71427c9c-4e25-4c38-adf9-7c06358eef34,Laila Mayert,Albania,Minnesota,West Nathaniel,61988-5899,Mikayla Harbor,Verdie_Feil,830-625-5183 x09009,97
46bf331f-7f59-4cde-a0e3-8bb3c1f84654,Rodolfo Wehner,Micronesia,Maryland,Strosinview,61861-3761,Kristopher Prairie,Lucious_Beatty,(496) 763-1984,94
bf32c3d4-183b-467f-97b1-7d3d3925b85b,Chance Ankunding,Cuba,Wyoming,South Kirstin,46092-0234,Cielo Ferry,Valentina.DuBuque51,204.320.5006 x659,91
cfa904f3-4f02-4794-8920-af18c9ba884e,Christ Schmeler,Somalia,Texas,Okunevaberg,91373-0357,Ledner Lodge,Anya.Bartell,529.532.8120 x601,61
414c9a28-cc8b-4974-a213-5047bf8a02c1,Krystina Considine,Myanmar,Missouri,Salmaview,55800,Helmer Island,Ludie58,009.418.3223 x88762,65
941fa51d-d08f-47fe-bc80-82db5944c2db,Luella Yost,Cape Verde,West Virginia,McKenziehaven,79489-5960,O'Keefe Underpass,Esta_Miller29,187-327-8457 x055,77
56c3b018-9b48-42e6-ab54-bb876db37060,Ila Nitzsche,Serbia,Louisiana,Abrahamberg,51456,Omer Plaza,Ayana.Brakus38,369-394-2681 x0232,95
af4735de-7e9f-46f0-908a-176a94440b3a,Liza Runolfsdottir,Philippines,Texas,South Lempi,13842-9005,Veum Islands,Murl_Block42,(294) 787-1871,96
6f41a8ae-90b3-4974-b8a8-7853b320b8fb,Delilah Bruen,Russian Federation,Louisiana,Nasirton,43870-3898,Bernier Crossroad,Darrick.Lynch,536.228.8428 x859,50
a8a55241-04cd-422b-afa1-d0118fb78d11,Alvera Cummings,Saint Barthelemy,Iowa,Torptown,34473,Schmitt Ville,Tristian_Barrows,1-629-116-5617 x7743,55
7ff485eb-1bf3-4a6a-9241-16a741a43adc,Chelsie Langosh,Bhutan,Oregon,North Lora,53501-4393,Rolfson Tunnel,Erica_Brekke,1-718-467-7287,72
a883e2ba-5c17-4469-a095-5798d0512b52,Markus Kautzer,Cayman Islands,Rhode Island,Nedstad,79321,Blanda Fall,Krystal.Christiansen78,1-001-268-9702 x1226,47
2162768a-9e2b-4be9-9182-ef69316b4e3a,Weldon Kirlin,Macao,Rhode Island,Fisherport,97313-2118,Brakus Row,Leatha14,021.351.6569,40
43dd8d50-e45b-41d2-88ae-1018bc5297bb,Kaitlin Jones,Equatorial Guinea,South Dakota,South Therese,19409-5200,Arely Falls,Tyler60,1-294-675-8639 x2273,83
53c4fc49-db93-4df6-a746-950416c09b68,Santa Schuppe V,Luxembourg,Arizona,West Johnathon,18682-6867,Eldora Dam,Andre76,789.613.0128,71
592871c4-9042-45c6-9e98-4299515d9ffa,Clemens Runolfsson,Micronesia,Maine,South Jazmyne,85039-4493,Hagenes Wells,Kory91,1-063-023-3694 x7868,50
79e5b6cd-ce49-4615-aef3-b37be4b0abb4,Alexandre Stracke,Ukraine,Indiana,Amiraborough,66634,Norbert Viaduct,Johnathon3,086-094-9519 x6407,41
01ff3b8d-8340-4810-b295-7db167d178e7,Lera Bradtke,Cameroon,North Dakota,East Kiarraborough,91103-6917,Frederik Plains,Sharon.Douglas26,1-116-425-1059 x39236,96
1bc7125c-e954-4a80-b6bf-615747657ef6,Miss Dexter Jacobs,Malaysia,Delaware,Lake Rodolfo,60518,Keith Junctions,Jevon73,711-285-0631 x142,49
cd22897b-b002-4f52-ab21-c14696b7b134,Anabel Leannon,Austria,Utah,McDermottbury,75951,Deon Walk,Eliezer8,1-030-429-9886 x872,56
f2277cf3-66f1-4114-910e-a13a1dbba26d,Minerva Kuphal,Malta,Rhode Island,Lake Josefabury,14212,Goldner Creek,Novella39,(254) 011-6306 x873,99
1145a1a2-859b-495c-a679-ba434611e3c1,Evalyn Anderson,Northern Mariana Islands,Arkansas,New Elodyshire,48448,Johnston Estates,Chaya32,237-583-9058 x628,72
a62921af-b3c1-4593-972c-8fd7695e9c1a,Ms. Carmen Gibson,Sweden,Massachusetts,Ricebury,40886,Alphonso Place,Bernita.Halvorson,(873) 592-6453,96
acbc096f-beb9-453a-8580-8f7d65d0bfeb,Alec Gorczany,Haiti,Pennsylvania,Port Luciano,69755-5731,Devonte Camp,Lue32,1-689-028-2263,67
71917837-28c2-4529-9cf6-92ef1694595f,Natalia Shanahan,French Guiana,Ohio,Port Remingtonmouth,60212-2220,Veum Green,Lorenzo_Morar,(271) 487-4717 x838,99
13f58497-5494-49d1-9821-e8f2693d7943,Ashtyn Ferry,New Caledonia,Oregon,Port Zionville,36697,Tania Loop,Rhianna_Hackett74,736-635-2996,52
e630e525-c327-47be-95c9-8ab5d396761a,Guido Blick,Somalia,Iowa,East Krista,67916,Adelia Motorway,Merlin_Nikolaus,(345) 172-2918,81
e6a6682a-9203-401c-bacd-2661120f2870,Ms. Alene Bins,Senegal,Minnesota,Jenifershire,17553,Satterfield Points,Jesus.Schmeler79,851-574-5136,71
1f341aee-361e-4d30-8962-831370c9b0d8,Franz Frami,Brunei Darussalam,Montana,Margeview,44006,O'Conner Mills,Yadira58,994-501-7314,58
efb5bc48-501d-4e45-b2d5-79b92534cfc6,Stan Brekke,Ghana,Michigan,Tracyborough,83898-0887,Geovanny Ridges,Victor34,(062) 287-7816 x378,63
037196ef-b48f-4e99-9e85-5188d15a1c09,Zetta Brown,Isle of Man,Ohio,South Hyman,71147-3499,Runte Trafficway,Mitchel.Kassulke,208.259.0618,98
55047881-944f-4272-a0f1-516c4ae8437b,Guido Frami,Somalia,North Dakota,Westhaven,73718-7860,Shanahan Port,Agustin2,950-466-2973 x516,96
d4d280d4-b551-4a46-be26-c646e91f4f1c,Breana McGlynn,Heard Island and McDonald Islands,Nevada,Gilbertmouth,7365,Skylar Throughway,Declan.Kohler77,(651) 295-7272 x1197,66
fdecd050-0755-46ae-b659-3880aac0d076,Alivia Waters,"Virgin Islands, U.S.",Kansas,Lake Allanmouth,97518,Fritsch Rapids,Osvaldo53,854-068-1435,44
81dd1748-2195-4544-a13d-3864228a5b26,Carli Kuhn,Holy See (Vatican City State),Michigan,Marianaside,79940,Erin Mountains,Ibrahim_Senger,759.026.5629 x17694,52
2d839acf-aeff-48e6-9768-28df578e86ad,Bryce Stroman,Iceland,New York,Port Deanburgh,44107-1158,Charles Meadow,Consuelo71,012-362-7476,88
51bf36d8-27f4-41c0-86ad-43661b9ed279,Tyrell Gleason,Armenia,Mississippi,Kesslerberg,18846-7709,Shanahan Parkway,Arturo.Cremin,801-294-3280 x9047,100
d44eb3b4-f09e-452e-83d0-e9788a770508,Ernest Kihn,Egypt,Michigan,Port Alexville,87539,Schumm Falls,Kolby.Brown,769.629.5440 x229,42
ec214b10-62d7-4870-a5a2-ca83c8afbeb3,Karelle Jakubowski V,Turkmenistan,Alaska,Danielport,98877,Mills Court,Gianni62,147-735-0071 x708,46
71087225-5e92-452d-a86a-d674100e5d47,Shanon Heathcote,Myanmar,North Dakota,East Isabella,83439,Pacocha Lodge,Queen_Zieme,1-184-502-5143 x1373,91
85ed0a04-1384-4f6d-8a5f-3cbdaed2bff5,Bette Von,Qatar,Utah,East Mustafa,62827,Krystina Corner,Rick40,1-590-056-2931 x227,97
e05522eb-54c8-4d35-8292-65c1ccfd9daf,Nola Stroman,Montserrat,North Dakota,South Chasity,74350,Upton Prairie,Dora10,1-521-363-7301,60
a9f9b493-857d-411b-b380-3a5b4f3c1fae,Vena Ruecker,Micronesia,Vermont,New Jonathonshire,41230,Pacocha Isle,Prince56,(400) 482-5965 x322,75
db87ad80-1a5a-4855-9391-f542a53a40bb,Woodrow Douglas,Croatia,Connecticut,South Marianachester,06500-9525,Nat Manors,Adan_Rolfson,110.625.1117 x625,83
b7e69e12-8e4d-42cb-a491-b22af216b0a5,Jerrod Klocko,Liberia,Kansas,New Erinshire,41342,Hilpert Oval,Ronny.Marks29,114.316.1155 x9441,57
76bb1817-0c14-42be-926b-4b3951635f69,Nickolas Maggio,Iceland,New Jersey,Jeremieville,46557,Hickle Green,Reymundo_Anderson7,1-007-041-3833 x0922,74
3114d821-ab88-488c-94a8-2d211a834fa9,Glenna Klocko,Greece,Missouri,North Petra,42996-4357,Marta Islands,Elouise_Monahan,393.016.9562 x364,62
ce19ea27-3899-4935-9fc2-429ac7bd06fa,Genevieve Waters,Guinea-Bissau,New Jersey,South Karlie,10377-2976,Hudson Mount,George_Bechtelar,(202) 084-4477 x970,56
9041ed28-c3ac-4d6e-86c9-4f351183f2ba,Earlene Rolfson,Anguilla,Ohio,Gusikowskiton,98191,Legros Street,Nedra4,451.868.0143 x2966,58
d1fc9b9b-96ed-436b-83a1-140590b00ce0,Marcellus Yundt,Nepal,Vermont,East Cassie,81195-3651,Spinka Divide,Trever16,(901) 040-4006 x01182,66
a745985c-cbb0-4c0a-914c-704d062dccc9,Amber Gleichner,Angola,Mississippi,Jaylinborough,21360,Calista Heights,Lauryn78,(206) 972-6172 x734,85
5541a4a5-4a52-4bf9-b610-c7b773027e2b,Elfrieda Willms,France,Illinois,Feestville,84022-3556,Orland Gateway,Chelsea.Wolff74,694-541-4738,43
58eb0d74-5fb5-45d0-991a-12384cfddc82,Donna Corwin,Bahamas,Colorado,Lake Ivory,54775-5157,Gleason Garden,Wilburn_Sanford,889-457-6362 x1287,99
7af9f047-f9da-4be3-a57e-d9c9ade97be1,Sabrina Kub,Tanzania,Maryland,Veumbury,35969-5839,Kaylah Wall,Odell.Brekke,(487) 437-1549,54
a4df1e41-4057-4363-8899-9e73f958c44a,George Erdman,Lebanon,West Virginia,Waelchiview,83268-6492,Marks Mission,Breanna43,1-111-244-8062 x9337,78
927b4f00-90ca-44d2-938d-8fefa51d8bf8,Micah O'Connell,"Virgin Islands, U.S.",Wisconsin,Markshire,82089-6898,Larissa Trafficway,Kaleb_Durgan17,(494) 858-9972 x165,93
aeb32040-ef0e-49ae-ae8b-b9c5ee2419a1,Ola Bauch,Nicaragua,Massachusetts,East Urbanbury,98367,Mosciski Viaduct,Sister.Bernier87,919-307-1789 x474,53
8f90ecc1-9794-4ef9-80e3-1f376734f265,Muhammad Conroy DVM,Haiti,Missouri,Bogisichbury,18510-1597,Russel Mission,Madaline.Adams,(218) 019-2126 x35150,89
f88ff9a5-8354-4f80-afb4-58634e9733a4,Alba Yundt,Malaysia,Virginia,Lake Paytonshire,83222,Prosacco Isle,Melody_Harris40,746-065-4076 x9804,52
ac7e6e3c-7640-4bcc-961c-34c1c3b2aad5,Sibyl Little,Turkmenistan,Missouri,Greenstad,25701-0855,Kirk Camp,Brittany.Yundt,(080) 927-6971 x701,67
fc1b258f-31ad-4cf2-8fcf-421a4e4fb17d,Baron Wintheiser,United States of America,Pennsylvania,Dejuanchester,47482-5822,Audrey Causeway,Simeon_Osinski,1-553-495-0170 x786,71
a7023006-b225-4745-b4f3-b19195aa93ae,Dawn Ondricka,Malaysia,Iowa,Hannamouth,06750-0751,Reichert Gateway,Ebba.Hahn,(507) 545-6281,70
d4f8ea0a-d6e1-4f4c-b661-16bc72307365,Viviane Sipes,Jersey,Pennsylvania,Lake Katrineburgh,14722,Hoppe Mall,Marian_McKenzie76,746.328.0600 x028,93
8ad18e4e-f5b6-4cdd-84a2-5b59e567e9ef,Ryann Cole,Philippines,Kansas,Port Freeda,20132-2168,Cecile Spur,Paige.Larkin48,1-074-447-9505,95
e8839755-7700-45ec-832d-2bfade5b20a2,Alize Okuneva,Nigeria,Virginia,Jarredfurt,19802,Madalyn Burgs,Tyree_Bruen0,326.243.5703 x35679,55
47a7cd59-4699-4431-998a-cf81146ee6a4,Herbert Jones,Ireland,Iowa,Ryanside,09858-6808,Shields Stravenue,Deshaun54,965.505.2316 x555,82
faa79c22-75f1-4b46-ac97-76ee9249ffdb,Declan Reichert,Montenegro,Tennessee,Port Alexanechester,26122-6437,Marian Cliffs,Germaine_Ledner21,(711) 749-5777 x63807,98
5ece474c-0e44-46f5-bfc3-2180490e1a5e,Sibyl Schneider,Uganda,Kansas,Parisianchester,97463-7294,Chesley Flats,Ethelyn.Kuphal9,476.414.3556 x54452,87
81bb2346-afb9-489b-91f8-7204c98b67c3,Ms. Gilberto Jakubowski,San Marino,Michigan,New Ofeliaberg,85494-0758,Rosemarie Port,Leatha_Dietrich,(797) 800-2111,81
9a59a114-323a-43f7-89f6-8822eed07713,Alfredo Doyle,Haiti,California,Darronfurt,41044-8840,Royal Wall,Chanel.Hayes55,110.987.5575 x99577,62
1f6bbe1d-1bf5-41f8-8897-3197fec63776,Melyssa Howe,Mozambique,South Dakota,Alicemouth,92905-4062,Madilyn Ports,Gisselle.Greenholt34,(897) 304-0802,89
2a6c7590-0e28-4c00-a27b-3eef1a3227fd,Cruz Bartoletti,Mauritania,South Dakota,Sherwoodland,74906,Michelle Union,Mariane_Mayer72,(512) 207-8746,100
b2cd1845-5e2b-49c5-979e-e7e0a61432ee,Hortense Dicki,Equatorial Guinea,Georgia,Jamiechester,06531-5907,Luettgen Isle,Mazie.Lesch,531.855.7034 x502,85
2845de69-262d-484b-a422-9147ba7d8d72,Mrs. Kallie Von,Turkey,New Hampshire,Kochmouth,54526-7601,Gusikowski Mills,Adolph_Emmerich,184.255.3922 x64812,55
0f90813d-d77b-4bae-b82b-a8fadd34c8be,Selena Baumbach,Togo,Florida,Cordieshire,28529-8754,Ima Terrace,Mia37,(854) 671-4900 x873,89
7095d0a2-5fa4-4112-94ae-f0291d3fac88,Murphy Block,Israel,Ohio,Shieldsside,4642,Angela Square,Destini46,988.395.4702 x13062,65
4b643cb1-b8e2-40a0-9c4a-42c73437b5cf,Deron Labadie,Finland,New Jersey,Kutchfurt,83171,Hahn Valleys,Felipe61,(822) 967-6407,56
846e0047-6716-4b47-a2f0-c7f4f8c3dfa5,Jamir Rowe Sr.,Kuwait,Maryland,East Kayley,4296,Kub Mountain,Amiya.Monahan90,535.292.4329 x38199,58
d2cac8f5-06c6-4252-973e-2e46cffe0ce1,Gavin Hermiston,Kazakhstan,Connecticut,Efrenmouth,53046,Quinton Meadow,Dawn.Fisher,933.580.6962 x19661,77
50a44db9-d79e-423f-89ea-4d4e2b983fca,Mr. Shanelle Macejkovic,Zambia,New Hampshire,Melanymouth,99112-5634,Meta Drive,Chase7,911.256.4939 x9578,45
ab340a74-86b0-4975-b4fc-6186108f2599,Melyna Nienow,Saint Lucia,Nebraska,North Kendallside,97062-0038,Gleichner Knoll,Christophe_Bechtelar,318-542-0030 x220,71
557ce5b7-d01a-4c16-83bc-fb3483339e97,Julio Schimmel,Belarus,Georgia,North Fatimaland,23177-6417,Luz Fords,Caleigh.Donnelly,(971) 468-5811,74
c0ff426d-995e-4890-8a59-ae30bf400344,Amalia Bednar,Liechtenstein,Wyoming,Port Ardella,20885-7067,Clay Camp,Asia38,1-337-681-1370,86
941d9a92-d314-4d9a-abdf-402331302c4d,Kirk Brekke,Brazil,Ohio,Hintzshire,71605-3402,Erna Springs,Adelbert_Rippin33,646.656.7439 x5071,100
b35433e8-c749-48c6-965e-5999c85713d7,Kasey Hessel,American Samoa,Nevada,West Alverta,23186-4064,Norwood Vista,Madelynn.Sporer,1-685-485-3195,65
d6546a48-2844-44ea-86d0-0b0d5899da9c,Glennie Rodriguez,Philippines,Kansas,North Romaine,67504,Erika Gardens,Aurelio.Huels,544.663.8990 x658,53
fbc55a9d-89c2-4839-bd51-57941c16d1d4,Emery Stiedemann,Qatar,Hawaii,Port Elias,64810,Gilberto Road,Marietta_Wilderman,897.975.1266,81
863a2731-853a-4046-b344-2f97d72c3764,Arturo Runolfsson,Faroe Islands,Arkansas,Lake Dedrick,83064,Torp Mountains,Candelario.Rohan,873.657.2118 x024,72
7284517e-7125-4ade-982e-a442a0fce2a5,Katharina MacGyver,Ireland,New Mexico,Schillertown,05514-8258,Volkman Pike,Norberto_Bode70,686-498-2691,74
0815ba25-7bc2-433c-b80d-ea3b5dc67543,Cordelia Sporer,Tokelau,Vermont,East Harley,10443,Albertha Port,Ayden.Price,716.538.0314 x4770,76
4c3a2482-b4fd-4565-bff1-91950a0695b0,Rachael Hand,Switzerland,West Virginia,South Hayleyfurt,24527,Patricia Field,Devonte24,092.254.7631 x230,78
7ceffe28-087c-4eb3-9b6d-45d3f49ccc6d,Verna O'Keefe,Faroe Islands,Wisconsin,Port Judd,20288,Missouri Ridge,Zetta_Kuhlman,553.161.1568 x772,42
13f00965-2fa4-452a-a8be-515dcd0b9c36,Hazle Pfannerstill,Macedonia,Alaska,Lucieport,39942,Howell Flats,Andres.Raynor,933-266-9010,65
481493a0-fec0-44ce-9afa-8dfdead13d52,Miss Kendra King,Canada,Oregon,Blandahaven,77243-2251,Steuber Mountain,Stella98,612-609-3025 x29077,76
011a1b96-a420-4cc2-9b15-61ed2e437d7d,Linnie Abernathy,Brunei Darussalam,Indiana,Gulgowskifort,35247,Reichel Estates,Ebba68,742.505.1440,84
c7131b56-e610-4f51-9a03-8113ba3de0e5,Deja Stanton,United Arab Emirates,Florida,Kleinbury,27019-2846,Lorena Parks,Asa.Heaney,1-755-102-5175,55
f3eb3f27-fe9a-4707-83df-7b7804282d6d,Sonia Altenwerth IV,Kenya,Florida,Claudiestad,60862-3657,Amir Mission,Kylie.Cummerata70,1-212-270-0132 x279,83
ebb53b94-c069-4bfe-9ea7-4a00286dc941,Humberto Bauch,Spain,Iowa,Gottliebshire,65662,O'Conner Hill,Yazmin_Robel57,498-745-1573,75
3fb9ed04-e358-4f7e-a104-8df6c5ee1064,Britney Powlowski,Saint Kitts and Nevis,Illinois,Wisozkborough,97468-4926,Jerry Spur,Aliya.Steuber64,1-006-373-7868 x12758,69
1f158659-db50-4af9-9f58-87c02d5baf24,Trudie Turner,Bulgaria,Indiana,East Camilahaven,94884,Doug Lane,Reinhold54,(204) 647-9415,95
5e13709b-a374-47b3-966a-013c99288b7c,Dakota Krajcik Sr.,Norfolk Island,Maryland,East Bernitashire,43408-8903,Franecki Dale,Gage.Buckridge,1-294-137-4637 x7647,94
f4b59b92-abd9-4fa9-be0f-2cc6ebd1f459,Beverly Boyle,New Zealand,Texas,West Dawson,94104-8732,Noel Path,Janae73,(066) 379-9139 x47961,72
89844f1f-6182-4699-b944-af2196f3055b,Sid Dooley,Lao People's Democratic Republic,South Carolina,Blickburgh,42778-4812,Cleta Prairie,Robbie_Casper77,1-297-916-2968 x55970,93
540e15fe-7827-4d61-beaf-1751b9ea06b5,Mr. Araceli Kuhlman,Tunisia,New York,Port Misael,53327-4962,Federico Park,Ismael.Gutkowski,025.851.0475 x92771,90
ff7f6a5a-b846-45bb-804d-523bfcd5fc29,Noemi Wyman,Lesotho,Illinois,Keithchester,56503,Hegmann Rue,Alana_Roob79,(269) 499-6597 x9299,65
dfb5cfa6-2f97-4e17-ad37-b73d3b55a5e2,Ryan Roob,Greece,Nebraska,Alexysfurt,17653,Kurtis Courts,Alfonzo_Funk88,(061) 534-2759,92
c2043140-9ea3-489d-8bf7-0d9722242717,Cora Ortiz,Aruba,Wisconsin,North Wilmaburgh,49700-8534,Keyon Heights,Kellen.Jaskolski41,231.528.1188 x9913,81
3f00ef21-82be-497a-a83b-db6a49428285,Jayda Stamm V,Syrian Arab Republic,Maryland,Icieville,83839-7952,Batz Ferry,Samir_Metz,(972) 662-1921 x993,59
886d32fd-1291-4744-bfd6-2794d3c83860,Eloy Larson,Sweden,Kentucky,Allanchester,27142-7529,Rubie Tunnel,Jennings_Labadie25,(987) 508-5601,58
e31c784a-7732-413a-9be2-fcc81e270491,Ahmed Kris,Moldova,Nebraska,Gerlachton,70644,Deshawn Trafficway,Bradley67,(504) 625-7181,78
a81b0f11-5253-4fc6-9d5e-5212f7004794,Sydnee Walsh,Tanzania,Indiana,Sydnieshire,97901,Bosco Port,Adalberto71,(858) 280-0483 x98369,81
a9a6211d-5257-4377-96d2-d6b5c2305614,Cindy Brekke,Northern Mariana Islands,Oklahoma,Sterlingfurt,91279-9118,Maude Ports,Syble94,950-070-3336 x3491,42
8e8231a1-8ce3-47eb-aa50-0cb946799409,Davonte Grant,Moldova,Illinois,East Ted,45791,Bruen Union,Vesta1,1-534-184-2359,91
35a0f7ef-7467-417d-afeb-d67facc3a241,Estell Stehr,Ireland,Alaska,West Janaville,16651-1886,Kurtis Mill,Cole65,272-436-1799 x7160,63
ad8b84bc-b7fe-4a68-8d08-6676a4608b16,Noemi Wisozk,Mexico,Pennsylvania,West Laila,85080,Cydney Crest,Bertram.Balistreri81,829-966-1966,41
27ef7771-2b09-45ba-9faa-d8e0187395c0,Jedidiah McLaughlin,Argentina,Maryland,Horaciofurt,45564,West Harbors,Stewart.Grady34,1-889-551-0426,91
ffc74c1a-27fe-4fd0-b8eb-c46db471ec55,Jakayla Effertz Sr.,Trinidad and Tobago,Georgia,Mosheberg,40096-3837,Smitham Mountain,Kelley_Boyle53,279.421.6235 x580,47
4677babc-84d0-4bf3-abc3-86a8f8e2a111,Ursula Gorczany Jr.,Cuba,Idaho,New Garnettberg,75705-2412,Franecki Port,Verdie_Bailey,994-436-0755,70
7248a5aa-074d-48c2-a5e1-634d116637ae,Raoul Hirthe,Nepal,Washington,Port Christian,90453-6999,Windler Mission,Keely.Yundt82,690-263-7075,66
65974f83-204a-4c6b-a49c-e751201c829a,Cyrus Baumbach,Tokelau,Washington,West Haylee,99232-4599,Tierra Underpass,Jensen36,815.071.2658,51
6358ddd4-d6aa-4612-af8d-713eaf55e858,Virginia Wilkinson,Lithuania,Mississippi,West Mozelle,59712-9732,Mozell Crossroad,Elnora_Ledner18,303.416.3431 x5775,91
78751bb1-c3d9-4a43-804a-fc46fec5eb6e,Michale Mayert,Spain,Massachusetts,West Hipolito,79708-0688,Mabelle Road,Kristopher_Schamberger,1-299-338-0009 x128,95
7d331a90-4750-4a00-b2da-14e679683b31,Sigmund Lockman,Eritrea,Kentucky,Mayraport,88541-5747,Mosciski Harbor,Andreanne_Torp6,615.706.6736 x457,68
8943c504-48d0-4e1b-8cc6-8e3641a92884,Euna Metz PhD,British Indian Ocean Territory (Chagos Archipelago),Montana,East Zackery,76554,Peggie Bridge,Wilford20,029-519-6915,40
dc416791-b9d5-4e53-b184-be7b3bbb0075,Nasir Lockman DVM,Sao Tome and Principe,Montana,Gerholdborough,11628-7672,Grant Ford,Jewel94,1-414-426-1211 x62374,58
18dfe492-7e43-43dd-a12f-40c808c44643,Claire Beier,New Zealand,North Dakota,Walkermouth,24097,Franecki Rue,Federico_Brakus85,670-139-1423,55
5e74b46f-8083-4b7e-9e17-430e8095e1ce,Dale McLaughlin,Romania,Ohio,Port Maidahaven,30149-4465,Nikki Passage,Zachary84,613.262.9141 x24302,91
cf2ffcd3-a71d-477e-a96f-489719525828,Domenico Jones,Libyan Arab Jamahiriya,Illinois,Boylefurt,23201-9014,Abigale Ridges,Eleanora.Robel61,(551) 413-9482,87
46851f0c-5f10-47dd-92b6-db1ea76214b8,Brenden Gulgowski,Singapore,Indiana,Elianton,95417-0554,Ottis Haven,Buster.Cartwright,911.398.8968,100
4a5a9820-5d2b-439e-8d12-e85e8821e3cb,Ms. Lucious McKenzie,Cocos (Keeling) Islands,Arkansas,Arelymouth,77898-5376,Caleigh Turnpike,Bud_Crooks0,887.821.7480,71
33bba83a-3eda-406c-a3b9-861d6471353a,Miss Catharine Towne,Pitcairn Islands,Tennessee,Grantport,89688-5260,Zieme Land,Chloe_Douglas81,820-186-3851 x965,74
19d79882-e35c-4740-aa5b-57550eb9dfc9,Maeve Legros,Christmas Island,Arkansas,Robinchester,06726-4038,Arnulfo Circle,Eliane.Schowalter,(801) 076-5157 x8625,78
231ed3b9-a557-46c4-93fa-f050507b4702,Shanelle Carter,Kiribati,Indiana,Zboncakland,93354-1670,Kunde Village,Mar-37,448-067-0112 x744,92
c73d01f8-55be-4e11-8724-34a5713d46ad,Reyes Wilkinson,Iran,North Carolina,Runolfsdottirstad,52859-1668,Kuhic Rapid,Hilda61,290.802.4905 x49132,82
7013efec-78c7-41fa-b0fb-964594b8d58b,Ms. Providenci Stroman,Papua New Guinea,Massachusetts,Eichmannside,72530-4807,Lea Dale,Liam3,(792) 039-7088 x56328,44
328d3c09-617d-4b8b-be8f-3562308ce27e,Renee Donnelly,Uzbekistan,Montana,South Vena,7333,Hannah Expressway,Olaf_McClure68,1-434-902-9809,100
37f726e4-5c9b-47b6-bfab-512898e67644,Roberta Lueilwitz Jr.,Malawi,Vermont,Port Einar,93356-1678,Novella Prairie,Dovie.Dibbert,534.584.5024 x52946,94
ecf6f6a2-5942-4d41-b7be-7acb3c144ec1,Gretchen Bradtke V,Netherlands,Rhode Island,West Camronview,54807-7448,Thad Unions,Pauline.Abernathy42,469-880-1612,71
bb4f33b6-6b2c-4a82-acd8-f8a5d5e08538,Domenic Kautzer DDS,Marshall Islands,Nevada,Reyton,75861-5252,Collier Square,Kianna_Parisian,(136) 317-2847,100
cdaf827d-572f-424d-83f2-f347ca35d1a7,Katarina Marks,Cameroon,New York,Marvinbury,5515,Ed Harbors,Brennan_Berge31,(535) 351-4880 x6624,87
7525df4d-9680-4e80-a899-40d0afdb30dd,Arturo Bechtelar DVM,South Georgia and the South Sandwich Islands,Kentucky,South Gerard,87504,Turcotte Islands,Vicenta_Spinka12,681.890.2725,43
054138c5-5b66-4de9-8839-fc002396bf64,Nellie Nolan,United Kingdom,Hawaii,Lake Alexandrine,99969,Vicenta Knolls,Patience.Block,1-431-562-7057,64
15c34dfc-7d28-41d8-b4ec-e82e5077df68,Mr. Marlee Ryan,Kiribati,Colorado,New Edaside,38309-9093,Terence Center,Dallas_Blanda7,189-593-9448,99
7b71215c-43c0-40b7-a83a-18c41424b60d,Milan Huels,Jordan,Michigan,Ziememouth,56573,Asia Oval,Alexanne.Price,(772) 143-9784 x1421,66
82ceba00-1f31-466b-bab7-d5598a7e99d1,Ariel Deckow,Croatia,Nebraska,Port Hillaryborough,53851-4333,Edna Parkway,Ahmad.Hammes72,026-638-4610 x751,91
1231f797-a0c9-4c96-8e94-5a2f8b9f9431,Mrs. Christopher McCullough,Madagascar,Michigan,New Alessandro,51122-6019,Thiel Knoll,Ernest.Gorczany,908-769-1580 x2227,70
87a1d85b-b584-49f7-9526-04e107bfd267,Lucile Eichmann,Greece,Montana,North Abdullah,23564-3002,Maymie Ports,Aiyana.Hane,883-536-3365 x800,48
ee9933fb-0eaf-4fd4-879b-13da0d4e3759,Xzavier Russel,Martinique,Arkansas,New Madalyn,29694-3223,Ziemann Road,Cassandra.Stracke,1-964-791-4954,71
6e11f995-fa20-456b-b010-501b4a0c5f72,Sincere Bailey,Bolivia,Maryland,Port Jasenstad,16711,Linwood Knoll,Royce43,022-980-7453 x4325,81
7059a13c-37bf-4632-b595-7d64db7a2f97,Mr. Damaris Koss,Lebanon,Utah,Sabrynafurt,67942,Idella Stravenue,Terence.Crist16,251-497-5980 x6200,82
c9d93097-88b8-411c-8f6b-4443e0814cda,Manuela Goldner,Svalbard & Jan Mayen Islands,Arkansas,South Dudley,40385-0443,Susan Tunnel,Corene_Hilpert,1-938-906-2589 x861,54
0117efc9-c437-41d7-a927-37900d36fe0a,Amparo Bechtelar,Hong Kong,Alaska,West Jessicaside,72108,Prohaska Parks,Jovany.Tillman16,491.061.0883 x81398,76
5ac0e254-ca16-49e2-b5bc-39f361d9c37b,Ruthe Jones,Norfolk Island,Mississippi,Fernandofurt,75604,Eveline Valley,Reece40,(238) 293-6630,65
b8c6c473-24dd-4ac0-b74e-e5ff21e25280,Nona Berge,Burundi,Utah,Port Tamarabury,96191,Dariana Mount,Matilde_Feil63,1-465-129-8689,60
a68a58ac-9a0b-4b2a-8fe6-f5fca0665d92,Ryleigh King,Netherlands,South Dakota,Lawrenceberg,36779,Marcelo Glen,Hoyt76,504-506-3037 x17710,54
bfa04dc6-fd77-4d02-95ae-b6f185e5ce12,Dr. Michaela Kulas,"Virgin Islands, British",Idaho,Anaisburgh,60776,Fabiola Rapids,Noemi.Reynolds,657.134.1837 x5446,85
dd8887c0-2370-417c-a76b-f7c81182812e,Cristian Quitzon,Niger,Virginia,Lake Geraldineberg,51623,Keeling Lodge,Alek_Dooley,(764) 557-9666,78
ce2382f6-1c86-42c8-89d6-e1f23309ad83,Justine Ernser,Saint Pierre and Miquelon,South Carolina,Lueilwitzview,78760-7358,Opal Loop,Milo.Marquardt,1-178-082-5540 x21904,81
49a0471b-8636-4947-958b-bef3535aa348,Laurel Parisian PhD,Bhutan,New Jersey,South Clementina,82611,Davion Knolls,Kamron.Kilback74,184.268.9055 x129,95
df46142f-aa83-4234-ad90-2a45d591d3d5,Mason Bogisich,Mauritius,New Jersey,Rosemaryborough,71970-5779,Watsica Mews,Fay_Krajcik77,057.941.8822,68
beb93046-9ecb-485d-aa1f-4e029ddd1220,Lloyd Hermann,Holy See (Vatican City State),Illinois,Isabellaberg,99051,Goyette River,Amani_Cartwright75,635.216.6366,68
987a6f27-f4a0-4f5c-83ca-ba003928fb78,Darryl Mertz,Angola,Missouri,Dellchester,18592,Kiehn Crest,Ella.Robel75,626.876.7750 x506,94
508f2f09-95f1-49d5-88dd-5730f04a9e73,Lisa Jacobs,Thailand,Idaho,Predovicberg,21941,Okuneva Greens,Lucie.Cronin18,1-723-322-1554 x77150,42
ab66f169-5e88-4455-8e15-0b757f860eb5,Reid O'Conner,Samoa,Alaska,New Darwinchester,38351,Laurianne Canyon,Deonte94,1-273-431-3473 x4108,86
f3a5d856-8142-49e1-80ac-ad9f2613e6e5,Citlalli Turcotte III,Maldives,North Dakota,South Dulce,38924-8998,Donnell Land,Cynthia_Nienow,(387) 879-1118 x353,58
60468a8d-a83f-40bd-b0c1-87d74e7df690,Joshua Lehner,Cote d'Ivoire,Georgia,Port Leolafort,78643,Jordane Plaza,Jayme.Tromp,159.590.8477 x82357,40
d5268d39-e712-4c53-89ae-d966853fe6ab,Nannie Jenkins,Chad,Alaska,Armandfurt,10691,Ludwig Stravenue,Cleta_Goyette,(106) 961-9998,48
8c6dc9a7-e804-4c0c-8092-079c1388f2b7,Darrick Macejkovic,Gabon,Vermont,Gutkowskihaven,37972-3973,Dietrich Valleys,Rebeka_Nicolas5,392-221-1693 x360,89
2f228b54-e5bc-4730-8365-1d07be34e6f0,Vito Schmidt,Falkland Islands (Malvinas),Tennessee,Tiannastad,87147,Schumm Fort,Francisca82,(317) 768-5741,82
47968330-89a6-40af-a60c-322587ca4313,Hoyt Grimes,Australia,Minnesota,Lake Lorenzoside,79857-9591,Collier Spurs,Deshaun_Hilpert82,1-917-761-0754,93
808ff274-1ebc-4467-89a5-249310a30b5d,Ashleigh Pagac MD,Northern Mariana Islands,Wisconsin,North Rodrick,91259,Norris Island,Pattie.Farrell,(603) 546-4343 x1095,89
b5f971c6-dd69-4679-ac2f-75d99bd23d4b,Randy Ferry,Saint Vincent and the Grenadines,Rhode Island,Demetrismouth,61241-9213,Jay Extensions,Darian.Emard60,1-181-710-4564 x9775,95
14653152-e5db-49f6-b348-f131d0d5969c,Emmanuel Ritchie,Vanuatu,Michigan,North Elliottchester,29403,Cronin Way,Ian80,689.303.6913,86
29cda87f-1eb0-45fe-b9a0-6d9ced3c250d,Miss Jevon Hoppe,Eritrea,Washington,Port Rickiemouth,83705-9627,Kiehn Divide,Letitia.Purdy,1-295-968-0864,71
768c0771-4c33-4189-a5ef-f9674e22d9ee,Eleanore Bradtke,El Salvador,Kentucky,East Murielport,52768-1323,Katlynn Landing,Carley13,904.264.3772 x8557,50
ea8b8f34-023f-4354-bb31-b63f46ce6c75,Mr. Candice Botsford,Cayman Islands,Wyoming,Yolandaville,31136-1383,Beatty Heights,Mabel67,(502) 949-7348 x485,53
1a2cddce-8caa-4bd2-81a3-2889080019f8,Marques Grant,Bangladesh,Maryland,Port Buddy,86208-3714,Clement Pines,Benjamin.Conroy56,(848) 503-8159 x088,88
dd0bed20-0305-48b8-957c-f16f2c8a9d41,Ila Cummings,Malaysia,Pennsylvania,Rogahnborough,7179,Dale Forges,Eva72,329.532.5995 x3952,96
0b189fd7-fc3e-41cc-9d7b-7eabb2791cce,Mack Hermann,Botswana,Wyoming,Michellechester,92655,Joshuah Creek,Javon_Hartmann,(170) 641-4225 x2040,61
041096c4-69ac-49d9-a494-479e789e9bdb,Ms. Angelita Shields,Norfolk Island,Iowa,Lake Raven,96764,Green Estate,Susie_Hilpert28,095-283-5484 x389,51
